COSMOS 2251 DEB         
1 34129U 93036LA  17345.79259240  .00000621  00000-0  16024-3 0  9993
2 34129  74.0466 125.2393 0050654 233.2330 126.4177 14.51472286465642
